STARLINK-37041          
1 68104U 26044D   26080.91667824  .00050517  00000+0  33796-3 0  9992
2 68104  97.2836  41.6641 0001201  89.4983 318.7040 15.75162267  3315
STARLINK-37021          
1 68105U 26044E   26080.91667824 -.00232442  00000+0 -15933-2 0  9996
2 68105  97.2834  41.6658 0001532  75.4063 340.7359 15.75288649  3314
STARLINK-37024          
1 68106U 26044F   26080.91667824 -.00726088  00000+0 -51794-2 0  9996
2 68106  97.2837  41.6691 0001324  92.2161 329.7163 15.75693394  3317
STARLINK-37005          
1 68107U 26044G   26080.91667824  .00037185  00000+0  24971-3 0  9996
2 68107  97.2835  41.6620 0000849  68.5829 337.6192 15.75133076  3312
STARLINK-37017          
1 68108U 26044H   26080.91667824 -.00123240  00000+0 -83493-3 0  9991
2 68108  97.2837  41.6704 0001442  81.9684 342.2004 15.75256059  3317
STARLINK-36833          
1 68109U 26044J   26080.91667824 -.00013096  00000+0 -87152-4 0  9996
2 68109  97.2835  41.6721 0001840 111.4032 320.7903 15.75165048  3364
STARLINK-36830          
1 68110U 26044K   26080.91667824 -.00052712  00000+0 -35482-3 0  9994
2 68110  97.2836  41.6710 0001712 117.7411 310.4441 15.75181827  3369
STARLINK-36791          
1 68111U 26044L   26080.91667824 -.00990952  00000+0 -72181-2 0  9998
2 68111  97.2837  41.6765 0001290  92.7532 347.0165 15.75936814  3316
STARLINK-36893          
1 68112U 26044M   26080.91667824 -.01692306  00000+0 -12083-1 0  9996
2 68112  97.2837  41.6784 0001453  88.4287 356.9318 15.76522409  3364
STARLINK-36937          
1 68113U 26044N   26080.91667824 -.00735006  00000+0 -52464-2 0  9999
2 68113  97.2838  41.6810 0001256  88.7027   3.2197 15.75702812  3311
STARLINK-36229          
1 68114U 26044P   26080.91667824 -.01469078  00000+0 -10584-1 0  9990
2 68114  97.2836  41.6791 0001286  91.6926 357.7481 15.76382121  3368
STARLINK-36392          
1 68115U 26044Q   26080.91667824 -.01435987  00000+0 -10366-1 0  9991
2 68115  97.2836  41.6839 0001841  79.3200  18.2477 15.76264585  3364
